[{"OBJECT_NAME":"KUIPER-00018","OBJECT_ID":"2025-088K","EPOCH":"2026-03-09T09:14:13.950816","MEAN_MOTION":14.79966884,"ECCENTRICITY":0.00010275,"INCLINATION":51.9017,"RA_OF_ASC_NODE":101.9157,"ARG_OF_PERICENTER":120.7858,"MEAN_ANOMALY":239.3206,"EPHEMERIS_TYPE":0,"CLASSIFICATION_TYPE":"U","NORAD_CAT_ID":63733,"ELEMENT_SET_NO":999,"REV_AT_EPOCH":4744,"BSTAR":0.001710843,"MEAN_MOTION_DOT":0.00012856,"MEAN_MOTION_DDOT":0},{"OBJECT_NAME":"OKEAN-O","OBJECT_ID":"1999-039A","EPOCH":"2026-03-09T17:16:10.736544","MEAN_MOTION":14.80335142,"ECCENTRICITY":0.00012718,"INCLINATION":97.9442,"RA_OF_ASC_NODE":128.6108,"ARG_OF_PERICENTER":70.3084,"MEAN_ANOMALY":289.8265,"EPHEMERIS_TYPE":0,"CLASSIFICATION_TYPE":"U","NORAD_CAT_ID":25860,"ELEMENT_SET_NO":999,"REV_AT_EPOCH":43439,"BSTAR":0.0001136203,"MEAN_MOTION_DOT":8.14e-6,"MEAN_MOTION_DDOT":0}]
